METOP-B                 
1 38771U 12049A   26063.16571179  .00000159  00000+0  92663-4 0  9990
2 38771  98.6653 116.6935 0001214 296.6286  63.4767 14.21442583698340
SARAL                   
1 39086U 13009A   26063.15421964  .00000187  00000+0  84479-4 0  9999
2 39086  98.5552 251.0396 0001158 199.3598 160.7542 14.32826330680569
METOP-C                 
1 43689U 18087A   26063.11990782  .00000176  00000+0  10011-3 0  9997
2 43689  98.6776 124.5872 0002168 107.6389 252.5026 14.21494934379906
OTB-3-GAZELLE           
1 54023U 22127A   26062.84532484  .00000106  00000+0  44958-4 0  9992
2 54023  98.3901  56.1811 0013852 142.2100 218.0065 14.42632699179170
EOS-6 (OCEANSAT-3)      
1 54361U 22158A   26063.19448315  .00000504  00000+0  15066-3 0  9998
2 54361  98.3490 162.8186 0000230  32.2916 327.8291 14.46999832172652
KINEIS-1B               
1 60079U 24114A   26063.16060706  .00001691  00000+0  22830-3 0  9991
2 60079  97.9928  87.8167 0003855  84.4159 275.7493 14.80399959 91865
KINEIS-1C               
1 60081U 24114C   26063.19430512  .00001614  00000+0  21835-3 0  9992
2 60081  97.9949  87.6745 0002016 124.5060 235.6342 14.80391984 91842
KINEIS-1D               
1 60082U 24114D   26063.18307943  .00001147  00000+0  17358-3 0  9999
2 60082  97.9972  84.4340 0002208 132.7797 227.3598 14.76102258 91633
KINEIS-1E               
1 60083U 24114E   26063.21127094  .00001574  00000+0  21292-3 0  9997
2 60083  97.9934  87.7729 0002477  93.8404 266.3091 14.80409940 91857
KINEIS-1A               
1 60084U 24114F   26063.17751549  .00001349  00000+0  18346-3 0  9997
2 60084  97.9941  87.8616 0004769 104.7856 255.3885 14.80425218 91856
KINEIS-3C               
1 61220U 24172A   26063.20803304  .00003426  00000+0  55000-3 0  9991
2 61220  98.0303 154.2759 0003506 111.4414 248.7168 14.72284255 77627
KINEIS-3D               
1 61221U 24172B   26063.20139514  .00003376  00000+0  54205-3 0  9997
2 61221  98.0304 154.2807 0002540 115.8358 244.3112 14.72287856 77907
KINEIS-3E               
1 61222U 24172C   26063.18431836  .00003361  00000+0  53976-3 0  9995
2 61222  98.0298 154.2591 0001604 110.2543 249.8836 14.72276587 77907
KINEIS-3A               
1 61223U 24172D   26062.82753875  .00003271  00000+0  52521-3 0  9991
2 61223  98.0293 153.9956 0003142  82.2353 277.9211 14.72301681 77273
KINEIS-3B               
1 61224U 24172E   26063.15029876  .00003334  00000+0  53573-3 0  9994
2 61224  98.0291 154.3479 0003637  74.1663 285.9945 14.72257776 77896
KINEIS-5C               
1 62081U 24219A   26063.19508870  .00001456  00000+0  23785-3 0  9993
2 62081  97.9724 224.7572 0001711  98.0128 262.1273 14.72349679 68306
KINEIS-5D               
1 62082U 24219B   26063.16107181  .00001787  00000+0  29036-3 0  9993
2 62082  97.9646 224.7080 0001153  76.2163 283.9172 14.72325814 68305
KINEIS-5E               
1 62083U 24219C   26063.17778824  .00000423  00000+0  74606-4 0  9993
2 62083  97.9650 224.9180 0002753 138.7300 221.4116 14.72321280 68317
KINEIS-5A               
1 62084U 24219D   26063.14137501  .00001194  00000+0  19721-3 0  9994
2 62084  97.9787 224.9797 0001399 228.7384 131.3703 14.72177329 68314
KINEIS-5B               
1 62085U 24219E   26063.19493858  .00002757  00000+0  38875-3 0  9997
2 62085  97.9932 227.7202 0001126 213.1225 146.9915 14.78047399 68494
KINEIS-2C               
1 62929U 25028B   26063.15433360  .00001691  00000+0  27538-3 0  9991
2 62929  98.0287 118.3902 0001361  39.2836 320.8470 14.72297963 57152
KINEIS-2D               
1 62930U 25028C   26063.14363906  .00002620  00000+0  39398-3 0  9990
2 62930  97.9420 117.5755 0003717 160.7586 199.3764 14.75317949 57220
KINEIS-2E               
1 62931U 25028D   26063.14111541  .00002037  00000+0  29822-3 0  9990
2 62931  97.9092 116.9695 0001827 115.2653 244.8747 14.76694659 57271
KINEIS-2A               
1 62932U 25028E   26063.11399618  .00001635  00000+0  26799-3 0  9994
2 62932  98.0697 118.6574 0003326 212.8928 147.2072 14.72083230 57141
KINEIS-2B               
1 62934U 25028G   26063.13844072  .00001840  00000+0  29356-3 0  9997
2 62934  97.9803 117.8639 0004819 121.5955 238.5724 14.73096261 57199
KINEIS-4E               
1 63300U 25056A   26063.18154163  .00003586  00000+0  57454-3 0  9995
2 63300  97.9934 189.5803 0000600 192.8034 167.3159 14.72333733 51679
KINEIS-4C               
1 63301U 25056B   26063.19397444  .00003807  00000+0  60887-3 0  9998
2 63301  97.9993 189.7560 0000706  47.5026 312.6241 14.72375204 51688
KINEIS-4D               
1 63302U 25056C   26063.19900079  .00003789  00000+0  60644-3 0  9993
2 63302  97.9975 189.7394 0000517 326.5391  33.5784 14.72345957 51682
KINEIS-4A               
1 63303U 25056D   26062.62048550 -.00000963  00000+0 -14474-3 0  9991
2 63303  97.9941 189.0973 0001610 271.1978  88.9045 14.72278900 51590
KINEIS-4B               
1 63304U 25056E   26062.80743462  .00001461  00000+0  23900-3 0  9992
2 63304  97.9947 189.3269 0002028 211.1315 148.9773 14.72295278 51616
